[{"OBJECT_NAME":"SL-8 R/B","OBJECT_ID":"1979-089B","EPOCH":"2026-03-06T08:19:31.686528","MEAN_MOTION":14.42348128,"ECCENTRICITY":0.00171473,"INCLINATION":74.0671,"RA_OF_ASC_NODE":97.2326,"ARG_OF_PERICENTER":270.2411,"MEAN_ANOMALY":89.678,"EPHEMERIS_TYPE":0,"CLASSIFICATION_TYPE":"U","NORAD_CAT_ID":11574,"ELEMENT_SET_NO":999,"REV_AT_EPOCH":43562,"BSTAR":0.00011812159,"MEAN_MOTION_DOT":3.64e-6,"MEAN_MOTION_DDOT":0},{"OBJECT_NAME":"SL-14 R/B","OBJECT_ID":"1980-005B","EPOCH":"2026-03-06T15:22:11.911296","MEAN_MOTION":14.90926311,"ECCENTRICITY":0.00159266,"INCLINATION":82.5151,"RA_OF_ASC_NODE":310.1287,"ARG_OF_PERICENTER":168.1451,"MEAN_ANOMALY":192.0146,"EPHEMERIS_TYPE":0,"CLASSIFICATION_TYPE":"U","NORAD_CAT_ID":11672,"ELEMENT_SET_NO":999,"REV_AT_EPOCH":47603,"BSTAR":7.6131789e-5,"MEAN_MOTION_DOT":7.78e-6,"MEAN_MOTION_DDOT":0},{"OBJECT_NAME":"SL-8 R/B","OBJECT_ID":"1981-003B","EPOCH":"2026-03-06T08:35:39.192000","MEAN_MOTION":15.10813485,"ECCENTRICITY":0.02625455,"INCLINATION":82.9381,"RA_OF_ASC_NODE":293.1052,"ARG_OF_PERICENTER":190.2065,"MEAN_ANOMALY":169.378,"EPHEMERIS_TYPE":0,"CLASSIFICATION_TYPE":"U","NORAD_CAT_ID":12139,"ELEMENT_SET_NO":999,"REV_AT_EPOCH":31417,"BSTAR":0.00055132958,"MEAN_MOTION_DOT":0.0002142,"MEAN_MOTION_DDOT":0},{"OBJECT_NAME":"SL-3 R/B","OBJECT_ID":"1981-046B","EPOCH":"2026-03-06T14:30:44.218080","MEAN_MOTION":15.41896744,"ECCENTRICITY":0.00198192,"INCLINATION":81.2298,"RA_OF_ASC_NODE":293.4492,"ARG_OF_PERICENTER":32.7693,"MEAN_ANOMALY":327.4774,"EPHEMERIS_TYPE":0,"CLASSIFICATION_TYPE":"U","NORAD_CAT_ID":12465,"ELEMENT_SET_NO":999,"REV_AT_EPOCH":43795,"BSTAR":0.00034070776,"MEAN_MOTION_DOT":0.00014611,"MEAN_MOTION_DDOT":0},{"OBJECT_NAME":"SL-3 R/B","OBJECT_ID":"1981-103B","EPOCH":"2026-03-06T14:45:59.568192","MEAN_MOTION":15.21331582,"ECCENTRICITY":0.00125105,"INCLINATION":81.1586,"RA_OF_ASC_NODE":217.0382,"ARG_OF_PERICENTER":297.5189,"MEAN_ANOMALY":62.4771,"EPHEMERIS_TYPE":0,"CLASSIFICATION_TYPE":"U","NORAD_CAT_ID":12904,"ELEMENT_SET_NO":999,"REV_AT_EPOCH":97276,"BSTAR":0.000335763,"MEAN_MOTION_DOT":7.557e-5,"MEAN_MOTION_DDOT":0},{"OBJECT_NAME":"SL-3 R/B","OBJECT_ID":"1982-013B","EPOCH":"2026-03-06T13:24:47.867904","MEAN_MOTION":15.21977402,"ECCENTRICITY":0.00224477,"INCLINATION":81.1764,"RA_OF_ASC_NODE":164.439,"ARG_OF_PERICENTER":187.8037,"MEAN_ANOMALY":172.2849,"EPHEMERIS_TYPE":0,"CLASSIFICATION_TYPE":"U","NORAD_CAT_ID":13068,"ELEMENT_SET_NO":999,"REV_AT_EPOCH":40387,"BSTAR":0.00028899257,"MEAN_MOTION_DOT":6.664e-5,"MEAN_MOTION_DDOT":0},{"OBJECT_NAME":"SL-3 R/B","OBJECT_ID":"1982-039B","EPOCH":"2026-03-06T14:36:36.082080","MEAN_MOTION":15.10059351,"ECCENTRICITY":0.00297982,"INCLINATION":81.1584,"RA_OF_ASC_NODE":219.5137,"ARG_OF_PERICENTER":334.4952,"MEAN_ANOMALY":25.4801,"EPHEMERIS_TYPE":0,"CLASSIFICATION_TYPE":"U","NORAD_CAT_ID":13154,"ELEMENT_SET_NO":999,"REV_AT_EPOCH":38117,"BSTAR":0.00022915695,"MEAN_MOTION_DOT":3.79e-5,"MEAN_MOTION_DDOT":0},{"OBJECT_NAME":"SL-3 R/B","OBJECT_ID":"1982-079B","EPOCH":"2026-03-06T15:33:22.004640","MEAN_MOTION":15.24742925,"ECCENTRICITY":0.00249192,"INCLINATION":81.1479,"RA_OF_ASC_NODE":196.6673,"ARG_OF_PERICENTER":174.8356,"MEAN_ANOMALY":185.3139,"EPHEMERIS_TYPE":0,"CLASSIFICATION_TYPE":"U","NORAD_CAT_ID":13403,"ELEMENT_SET_NO":999,"REV_AT_EPOCH":37723,"BSTAR":0.00038360731,"MEAN_MOTION_DOT":9.61e-5,"MEAN_MOTION_DDOT":0},{"OBJECT_NAME":"SL-14 R/B","OBJECT_ID":"1982-092B","EPOCH":"2026-03-06T06:40:17.311296","MEAN_MOTION":14.86662436,"ECCENTRICITY":0.00192042,"INCLINATION":82.57,"RA_OF_ASC_NODE":144.5903,"ARG_OF_PERICENTER":315.612,"MEAN_ANOMALY":104.2493,"EPHEMERIS_TYPE":0,"CLASSIFICATION_TYPE":"U","NORAD_CAT_ID":13553,"ELEMENT_SET_NO":999,"REV_AT_EPOCH":32842,"BSTAR":7.0757614e-5,"MEAN_MOTION_DOT":6.54e-6,"MEAN_MOTION_DDOT":0},{"OBJECT_NAME":"SL-3 R/B","OBJECT_ID":"1983-010B","EPOCH":"2026-03-06T06:23:49.903584","MEAN_MOTION":15.46205289,"ECCENTRICITY":0.0018308,"INCLINATION":81.1067,"RA_OF_ASC_NODE":6.4427,"ARG_OF_PERICENTER":62.0592,"MEAN_ANOMALY":298.2503,"EPHEMERIS_TYPE":0,"CLASSIFICATION_TYPE":"U","NORAD_CAT_ID":13819,"ELEMENT_SET_NO":999,"REV_AT_EPOCH":35741,"BSTAR":0.00039771912,"MEAN_MOTION_DOT":0.00019712,"MEAN_MOTION_DDOT":0},{"OBJECT_NAME":"SL-3 R/B","OBJECT_ID":"1983-075B","EPOCH":"2026-03-06T13:33:27.362592","MEAN_MOTION":15.38325038,"ECCENTRICITY":0.00198762,"INCLINATION":97.614,"RA_OF_ASC_NODE":70.0237,"ARG_OF_PERICENTER":238.0158,"MEAN_ANOMALY":121.9155,"EPHEMERIS_TYPE":0,"CLASSIFICATION_TYPE":"U","NORAD_CAT_ID":14208,"ELEMENT_SET_NO":999,"REV_AT_EPOCH":32967,"BSTAR":0.00037543526,"MEAN_MOTION_DOT":0.00014198,"MEAN_MOTION_DDOT":0},{"OBJECT_NAME":"COSMOS 1536","OBJECT_ID":"1984-013A","EPOCH":"2026-03-06T08:54:03.939552","MEAN_MOTION":15.23772397,"ECCENTRICITY":0.00126895,"INCLINATION":82.543,"RA_OF_ASC_NODE":111.1497,"ARG_OF_PERICENTER":296.6091,"MEAN_ANOMALY":63.3845,"EPHEMERIS_TYPE":0,"CLASSIFICATION_TYPE":"U","NORAD_CAT_ID":14699,"ELEMENT_SET_NO":999,"REV_AT_EPOCH":27211,"BSTAR":0.00027410677,"MEAN_MOTION_DOT":6.639e-5,"MEAN_MOTION_DDOT":0},{"OBJECT_NAME":"SL-14 R/B","OBJECT_ID":"1984-027B","EPOCH":"2026-03-06T11:03:45.915840","MEAN_MOTION":14.85972534,"ECCENTRICITY":0.00176383,"INCLINATION":82.5381,"RA_OF_ASC_NODE":248.0417,"ARG_OF_PERICENTER":348.9313,"MEAN_ANOMALY":11.1512,"EPHEMERIS_TYPE":0,"CLASSIFICATION_TYPE":"U","NORAD_CAT_ID":14820,"ELEMENT_SET_NO":999,"REV_AT_EPOCH":24715,"BSTAR":7.515592e-5,"MEAN_MOTION_DOT":6.82e-6,"MEAN_MOTION_DDOT":0},{"OBJECT_NAME":"SL-8 R/B","OBJECT_ID":"1985-006B","EPOCH":"2026-03-06T12:27:28.017792","MEAN_MOTION":14.37779856,"ECCENTRICITY":0.00185725,"INCLINATION":74.0432,"RA_OF_ASC_NODE":266.9833,"ARG_OF_PERICENTER":185.5554,"MEAN_ANOMALY":195.1557,"EPHEMERIS_TYPE":0,"CLASSIFICATION_TYPE":"U","NORAD_CAT_ID":15483,"ELEMENT_SET_NO":999,"REV_AT_EPOCH":15357,"BSTAR":8.7051788e-5,"MEAN_MOTION_DOT":2.36e-6,"MEAN_MOTION_DDOT":0},{"OBJECT_NAME":"SL-12 R/B(2)","OBJECT_ID":"1985-042D","EPOCH":"2026-03-06T13:09:28.736928","MEAN_MOTION":14.21981659,"ECCENTRICITY":0.00334041,"INCLINATION":71.1063,"RA_OF_ASC_NODE":94.3664,"ARG_OF_PERICENTER":133.2995,"MEAN_ANOMALY":28.2916,"EPHEMERIS_TYPE":0,"CLASSIFICATION_TYPE":"U","NORAD_CAT_ID":15772,"ELEMENT_SET_NO":999,"REV_AT_EPOCH":11394,"BSTAR":6.4533696e-5,"MEAN_MOTION_DOT":9.6e-7,"MEAN_MOTION_DDOT":0},{"OBJECT_NAME":"SL-14 R/B","OBJECT_ID":"1985-069B","EPOCH":"2026-03-06T09:06:19.487808","MEAN_MOTION":14.86428618,"ECCENTRICITY":0.00181774,"INCLINATION":82.5279,"RA_OF_ASC_NODE":28.0452,"ARG_OF_PERICENTER":198.8982,"MEAN_ANOMALY":161.1562,"EPHEMERIS_TYPE":0,"CLASSIFICATION_TYPE":"U","NORAD_CAT_ID":15945,"ELEMENT_SET_NO":999,"REV_AT_EPOCH":17234,"BSTAR":8.4756802e-5,"MEAN_MOTION_DOT":7.74e-6,"MEAN_MOTION_DDOT":0},{"OBJECT_NAME":"SL-16 R/B","OBJECT_ID":"1985-097B","EPOCH":"2026-03-06T09:17:43.725696","MEAN_MOTION":14.16599577,"ECCENTRICITY":0.00099677,"INCLINATION":71.0034,"RA_OF_ASC_NODE":147.5065,"ARG_OF_PERICENTER":263.7562,"MEAN_ANOMALY":167.3141,"EPHEMERIS_TYPE":0,"CLASSIFICATION_TYPE":"U","NORAD_CAT_ID":16182,"ELEMENT_SET_NO":999,"REV_AT_EPOCH":8676,"BSTAR":-3.7692816e-5,"MEAN_MOTION_DOT":-1.23e-6,"MEAN_MOTION_DDOT":0}]
