SL-8 R/B                
1 11574U 79089B   26065.34689452  .00000364  00000+0  11812-3 0  9999
2 11574  74.0671  97.2326 0017147 270.2411  89.6780 14.42348128435626
SL-14 R/B               
1 11672U 80005B   26065.64041564  .00000778  00000+0  76132-4 0  9993
2 11672  82.5151 310.1287 0015926 168.1451 192.0146 14.90926311476031
SL-8 R/B                
1 12139U 81003B   26065.35809250  .00021420  00000+0  55133-3 0  9997
2 12139  82.9381 293.1052 0262545 190.2065 169.3780 15.10813485314174
SL-3 R/B                
1 12465U 81046B   26065.60467845  .00014611  00000+0  34071-3 0  9996
2 12465  81.2298 293.4492 0019819  32.7693 327.4774 15.41896744437952
SL-3 R/B                
1 12904U 81103B   26065.61527278  .00007557  00000+0  33576-3 0  9996
2 12904  81.1586 217.0382 0012510 297.5189  62.4771 15.21331582972769
SL-3 R/B                
1 13068U 82013B   26065.55888736  .00006664  00000+0  28899-3 0  9991
2 13068  81.1764 164.4390 0022447 187.8037 172.2849 15.21977402403870
SL-3 R/B                
1 13154U 82039B   26065.60875095  .00003790  00000+0  22916-3 0  9996
2 13154  81.1584 219.5137 0029798 334.4952  25.4801 15.10059351381176
SL-3 R/B                
1 13403U 82079B   26065.64817135  .00009610  00000+0  38361-3 0  9990
2 13403  81.1479 196.6673 0024919 174.8356 185.3139 15.24742925377233
SL-14 R/B               
1 13553U 82092B   26065.27797814  .00000654  00000+0  70758-4 0  9997
2 13553  82.5700 144.5903 0019204 315.6120 104.2493 14.86662436328429
SL-3 R/B                
1 13819U 83010B   26065.26654981  .00019712  00000+0  39772-3 0  9994
2 13819  81.1067   6.4427 0018308  62.0592 298.2503 15.46205289357415
SL-3 R/B                
1 14208U 83075B   26065.56490003  .00014198  00000+0  37544-3 0  9992
2 14208  97.6140  70.0237 0019876 238.0158 121.9155 15.38325038329670
COSMOS 1536             
1 14699U 84013A   26065.37087893  .00006639  00000+0  27411-3 0  9990
2 14699  82.5430 111.1497 0012689 296.6091  63.3845 15.23772397272114
SL-14 R/B               
1 14820U 84027B   26065.46094810  .00000682  00000+0  75156-4 0  9990
2 14820  82.5381 248.0417 0017638 348.9313  11.1512 14.85972534247154
SL-8 R/B                
1 15483U 85006B   26065.51907428  .00000236  00000+0  87052-4 0  9991
2 15483  74.0432 266.9833 0018572 185.5554 195.1557 14.37779856153577
SL-12 R/B(2)            
1 15772U 85042D   26065.54824927  .00000096  00000+0  64534-4 0  9991
2 15772  71.1063  94.3664 0033404 133.2995  28.2916 14.21981659113942
SL-14 R/B               
1 15945U 85069B   26065.37939222  .00000774  00000+0  84757-4 0  9990
2 15945  82.5279  28.0452 0018177 198.8982 161.1562 14.86428618172346
SL-16 R/B               
1 16182U 85097B   26065.38731164 -.00000123  00000+0 -37693-4 0  9998
2 16182  71.0034 147.5065 0009967 263.7562 167.3141 14.16599577 86769
